NORAD_CAT_ID,OBJECT_NAME,OBJECT_TYPE,EPOCH,MEAN_MOTION,ECCENTRICITY,INCLINATION,RA_OF_ASC_NODE,ARG_OF_PERICENTER,MEAN_ANOMALY,BSTAR,MEAN_MOTION_DOT,MEAN_MOTION_DDOT,TLE_LINE0,TLE_LINE1,TLE_LINE2,SEMIMAJOR_AXIS,PERIOD,APOGEE,PERIGEE,DECAYED
50177.0,STARLINK-3282,PAYLOAD,2024-02-26 17:51:23,15.08851944,0.0002139,53.2191,339.8459,100.4079,259.7154,-0.00020538,-3.557e-05,0.0,0 STARLINK-3282,1 50177U 21125X   24057.74401756 -.00003557  00000-0 -20538-3 0  9996,2 50177  53.2191 339.8459 0002139 100.4079 259.7154 15.08851944124106,6917.844,95.437,541.189,538.229,0.0
50177.0,STARLINK-3282,PAYLOAD,2024-02-26 22:37:32,15.08832632,0.0001324,53.2194,338.953,84.07,276.0443,-2.2974e-05,-6.53e-06,0.0,0 STARLINK-3282,1 50177U 21125X   24057.94273188 -.00000653  00000-0 -22974-4 0  9995,2 50177  53.2194 338.9530 0001324  84.0700 276.0443 15.08832632124625,6917.903,95.438,540.684,538.852,0.0
50177.0,STARLINK-3282,PAYLOAD,2024-02-27 11:20:36,15.08836101,0.0001285,53.2189,336.5722,85.4475,274.6664,3.1633e-06,-2.38e-06,0.0,0 STARLINK-3282,1 50177U 21125X   24058.47264995 -.00000238  00000-0  31633-5 0  9991,2 50177  53.2189 336.5722 0001285  85.4475 274.6664 15.08836101124709,6917.892,95.438,540.646,538.868,0.0
50177.0,STARLINK-3282,PAYLOAD,2024-02-27 17:42:09,15.08831778,0.0001409,53.2199,335.3876,95.6506,264.4647,-1.7227e-05,-5.62e-06,0.0,0 STARLINK-3282,1 50177U 21125X   24058.73761478 -.00000562  00000-0 -17227-4 0  9991,2 50177  53.2199 335.3876 0001409  95.6506 264.4647 15.08831778124256,6917.906,95.438,540.745,538.796,0.0
50177.0,STARLINK-3282,PAYLOAD,2024-02-27 22:28:19,15.08830401,0.0001464,53.2201,334.4951,102.3037,257.8119,-3.0902e-05,-7.8e-06,0.0,0 STARLINK-3282,1 50177U 21125X   24058.93633736 -.00000780  00000-0 -30902-4 0  9995,2 50177  53.2201 334.4951 0001464 102.3037 257.8119 15.08830401124779,6917.91,95.438,540.788,538.762,0.0
50177.0,STARLINK-3282,PAYLOAD,2024-02-28 11:11:24,15.08834037,0.0001707,53.2199,332.1152,87.6302,272.4886,7.3328e-05,8.79e-06,0.0,0 STARLINK-3282,1 50177U 21125X   24059.46625414  .00000879  00000-0  73328-4 0  9994,2 50177  53.2199 332.1152 0001707  87.6302 272.4886 15.08834037124855,6917.899,95.438,540.945,538.583,0.0
50177.0,STARLINK-3282,PAYLOAD,2024-02-28 22:19:06,15.08838131,0.0001536,53.2197,330.0338,84.4882,275.6286,0.00011755,1.583e-05,0.0,0 STARLINK-3282,1 50177U 21125X   24059.92993098  .00001583  00000-0  11755-3 0  9999,2 50177  53.2197 330.0338 0001536  84.4882 275.6286 15.08838131124920,6917.886,95.438,540.814,538.689,0.0
50177.0,STARLINK-3282,PAYLOAD,2024-02-29 03:05:15,15.08845735,0.0001337,53.2181,329.1372,83.9272,276.1873,9.911e-05,1.29e-05,0.0,0 STARLINK-3282,1 50177U 21125X   24060.12864599  .00001290  00000-0  99110-4 0  9993,2 50177  53.2181 329.1372 0001337  83.9272 276.1873 15.08845735124461,6917.863,95.437,540.653,538.803,0.0
50177.0,STARLINK-3282,PAYLOAD,2024-02-29 11:02:10,15.08849273,0.0001407,53.2184,327.6509,80.0652,280.0499,0.00013385,1.843e-05,0.0,0 STARLINK-3282,1 50177U 21125X   24060.45984139  .00001843  00000-0  13385-3 0  9995,2 50177  53.2184 327.6509 0001407  80.0652 280.0499 15.08849273125007,6917.852,95.437,540.69,538.744,0.0
50177.0,STARLINK-3282,PAYLOAD,2024-02-29 22:09:51,15.08855075,0.0001523,53.2177,325.572,79.1787,280.9376,0.00021612,3.155e-05,0.0,0 STARLINK-3282,1 50177U 21125X   24060.92351202  .00003155  00000-0  21612-3 0  9996,2 50177  53.2177 325.5720 0001523  79.1787 280.9376 15.08855075125075,6917.834,95.437,540.753,538.646,0.0
50177.0,STARLINK-3282,PAYLOAD,2024-03-01 02:56:00,15.08865394,0.0001273,53.2176,324.6774,87.4951,272.6187,0.00021603,3.154e-05,0.0,0 STARLINK-3282,1 50177U 21125X   24061.12222258  .00003154  00000-0  21603-3 0  9996,2 50177  53.2176 324.6774 0001273  87.4951 272.6187 15.08865394124612,6917.803,95.436,540.548,538.787,0.0
50177.0,STARLINK-3282,PAYLOAD,2024-03-01 10:52:57,15.08841723,0.000119,53.2182,323.1903,88.9257,271.1872,4.9026e-06,-2.1e-06,0.0,0 STARLINK-3282,1 50177U 21125X   24061.45344124 -.00000210  00000-0  49026-5 0  9991,2 50177  53.2182 323.1903 0001190  88.9257 271.1872 15.08841723125155,6917.875,95.437,540.563,538.917,0.0
50177.0,STARLINK-3282,PAYLOAD,2024-03-01 22:00:40,15.08829305,0.0001455,53.2177,321.1091,90.8701,269.2458,-0.00011508,-2.118e-05,0.0,0 STARLINK-3282,1 50177U 21125X   24061.91713449 -.00002118  00000-0 -11508-3 0  9994,2 50177  53.2177 321.1091 0001455  90.8701 269.2458 15.08829305125223,6917.913,95.438,540.785,538.772,0.0
50177.0,STARLINK-3282,PAYLOAD,2024-03-02 20:16:03,15.08841096,0.0001459,53.2168,316.9449,94.0249,266.091,-0.00014066,-2.526e-05,0.0,0 STARLINK-3282,1 50177U 21125X   24062.84448861 -.00002526  00000-0 -14066-3 0  9995,2 50177  53.2168 316.9449 0001459  94.0249 266.0910 15.08841096124878,6917.877,95.437,540.751,538.733,0.0
50177.0,STARLINK-3282,PAYLOAD,2024-03-02 21:51:26,15.08842465,0.0001504,53.2168,316.6483,91.0113,269.1052,-0.00012316,-2.248e-05,0.0,0 STARLINK-3282,1 50177U 21125X   24062.91072735 -.00002248  00000-0 -12316-3 0  9993,2 50177  53.2168 316.6483 0001504  91.0113 269.1052 15.08842465125379,6917.873,95.437,540.778,538.697,0.0
50177.0,STARLINK-3282,PAYLOAD,2024-03-03 02:37:35,15.08847784,0.0001456,53.218,315.7539,99.3328,260.7829,-0.00014151,-2.54e-05,0.0,0 STARLINK-3282,1 50177U 21125X   24063.10944393 -.00002540  00000-0 -14151-3 0  9997,2 50177  53.2180 315.7539 0001456  99.3328 260.7829 15.08847784124917,6917.857,95.437,540.729,538.714,0.0
50177.0,STARLINK-3282,PAYLOAD,2024-03-03 21:42:13,15.08833677,0.000148,53.2178,312.1855,106.0799,254.0356,0.00017847,2.553e-05,0.0,0 STARLINK-3282,1 50177U 21125X   24063.90432682  .00002553  00000-0  17847-3 0  9995,2 50177  53.2178 312.1855 0001480 106.0799 254.0356 15.08833677125526,6917.9,95.438,540.789,538.741,0.0
50177.0,STARLINK-3282,PAYLOAD,2024-03-03 23:17:36,15.08837873,0.0001651,53.2182,311.887,105.8753,254.2422,0.00015828,2.232e-05,0.0,0 STARLINK-3282,1 50177U 21125X   24063.97056522  .00002232  00000-0  15828-3 0  9998,2 50177  53.2182 311.8870 0001651 105.8753 254.2422 15.08837873125530,6917.887,95.438,540.894,538.61,0.0
50177.0,STARLINK-3282,PAYLOAD,2024-03-04 21:33:00,15.08839716,0.0001873,53.2188,307.7262,130.7353,229.3802,3.4033e-05,2.54e-06,0.0,0 STARLINK-3282,1 50177U 21125X   24064.89792779  .00000254  00000-0  34033-4 0  9993,2 50177  53.2188 307.7262 0001873 130.7353 229.3802 15.08839716125188,6917.881,95.438,541.042,538.451,0.0
50177.0,STARLINK-3282,PAYLOAD,2024-03-04 23:08:24,15.08838889,0.000133,53.2176,307.4327,109.136,250.9776,2.6902e-05,1.4e-06,0.0,0 STARLINK-3282,1 50177U 21125X   24064.96417009  .00000140  00000-0  26902-4 0  9991,2 50177  53.2176 307.4327 0001330 109.1360 250.9776 15.08838889125685,6917.884,95.438,540.669,538.829,0.0
50177.0,STARLINK-3282,PAYLOAD,2024-03-05 02:19:10,15.08840054,0.0001171,53.2173,306.834,92.7418,267.3708,5.5887e-05,6.02e-06,0.0,0 STARLINK-3282,1 50177U 21125X   24065.09664834  .00000602  00000-0  55887-4 0  9993,2 50177  53.2173 306.8340 0001171  92.7418 267.3708 15.08840054125701,6917.88,95.438,540.555,538.935,0.0
50177.0,STARLINK-3282,PAYLOAD,2024-03-05 21:23:49,15.08826098,0.000127,53.2183,303.2668,108.5713,251.5417,-0.00011724,-2.153e-05,0.0,0 STARLINK-3282,1 50177U 21125X   24065.89154504 -.00002153  00000-0 -11724-3 0  9995,2 50177  53.2183 303.2668 0001270 108.5713 251.5417 15.08826098125333,6917.923,95.438,540.666,538.909,0.0
50177.0,STARLINK-3282,PAYLOAD,2024-03-06 19:39:13,15.08834315,0.0001134,53.2182,299.1052,97.4062,262.7059,1.3885e-05,-6.7e-07,0.0,0 STARLINK-3282,1 50177U 21125X   24066.81890049 -.00000067  00000-0  13885-4 0  9991,2 50177  53.2182 299.1052 0001134  97.4062 262.7059 15.08834315125476,6917.898,95.438,540.547,538.978,0.0
50177.0,STARLINK-3282,PAYLOAD,2024-03-07 08:22:17,15.08845686,0.0001114,53.2183,296.7253,88.6146,271.4974,8.1875e-05,1.016e-05,0.0,0 STARLINK-3282,1 50177U 21125X   24067.34881307  .00001016  00000-0  81875-4 0  9995,2 50177  53.2183 296.7253 0001114  88.6146 271.4974 15.08845686126046,6917.863,95.437,540.499,538.957,0.0
50177.0,STARLINK-3282,PAYLOAD,2024-03-08 14:34:38,15.0882776,7.08e-05,53.2178,291.0754,87.9524,272.1549,-8.3148e-05,-1.61e-05,0.0,0 STARLINK-3282,1 50177U 21125X   24068.60739112 -.00001610  00000-0 -83148-4 0  9998,2 50177  53.2178 291.0754 0000708  87.9524 272.1549 15.08827760126234,6917.918,95.438,540.273,539.293,0.0
50177.0,STARLINK-3282,PAYLOAD,2024-03-08 20:56:10,15.08838204,2.03e-05,53.2183,289.886,345.4416,14.657,1.0874e-05,-1.14e-06,0.0,0 STARLINK-3282,1 50177U 21125X   24068.87234181 -.00000114  00000-0  10874-4 0  9996,2 50177  53.2183 289.8860 0000203 345.4416  14.6570 15.08838204126277,6917.886,95.438,539.891,539.61,0.0
50177.0,STARLINK-3282,PAYLOAD,2024-03-09 00:06:56,15.08845539,0.0001088,53.2176,289.2892,92.9381,267.1736,8.6677e-05,1.092e-05,0.0,0 STARLINK-3282,1 50177U 21125X   24069.00481522  .00001092  00000-0  86677-4 0  9994,2 50177  53.2176 289.2892 0001088  92.9381 267.1736 15.08845539125801,6917.863,95.437,540.481,538.976,0.0
50177.0,STARLINK-3282,PAYLOAD,2024-03-09 12:50:01,15.08846896,0.0001803,53.2144,286.9094,91.2553,268.8646,6.8527e-06,-1.79e-06,0.0,0 STARLINK-3282,1 50177U 21125X   24069.53473726 -.00000179  00000-0  68527-5 0  9990,2 50177  53.2144 286.9094 0001803  91.2553 268.8646 15.08846896126370,6917.859,95.437,540.972,538.477,0.0
50177.0,STARLINK-3282,PAYLOAD,2024-03-10 07:54:38,15.08847471,0.0001151,53.2156,283.3408,95.6412,264.4712,7.2918e-06,-1.72e-06,0.0,0 STARLINK-3282,1 50177U 21125X   24070.32961273 -.00000172  00000-0  72918-5 0  9990,2 50177  53.2156 283.3408 0001151  95.6412 264.4712 15.08847471126007,6917.858,95.437,540.519,538.926,0.0
50177.0,STARLINK-3282,PAYLOAD,2024-03-10 14:16:11,15.08837609,0.0001418,53.2091,282.1495,109.8365,250.278,7.2386e-05,8.64e-06,0.0,0 STARLINK-3282,1 50177U 21125X   24070.59457613  .00000864  00000-0  72386-4 0  9992,2 50177  53.2091 282.1495 0001418 109.8365 250.2780 15.08837609126537,6917.888,95.438,540.734,538.772,0.0
